[{"OBJECT_NAME":"STARLINK-5812","OBJECT_ID":"2023-028AK","EPOCH":"2026-03-09T19:40:09.034464","MEAN_MOTION":14.98342308,"ECCENTRICITY":0.00028696,"INCLINATION":69.9995,"RA_OF_ASC_NODE":224.0828,"ARG_OF_PERICENTER":264.2118,"MEAN_ANOMALY":95.8714,"EPHEMERIS_TYPE":0,"CLASSIFICATION_TYPE":"U","NORAD_CAT_ID":55774,"ELEMENT_SET_NO":999,"REV_AT_EPOCH":16655,"BSTAR":0.00015065307,"MEAN_MOTION_DOT":1.706e-5,"MEAN_MOTION_DDOT":0},{"OBJECT_NAME":"QPS-SAR-11 (YAMATSUMI-I)","OBJECT_ID":"2025-125A","EPOCH":"2026-03-09T06:07:28.619904","MEAN_MOTION":15.00627459,"ECCENTRICITY":0.00100447,"INCLINATION":42.0098,"RA_OF_ASC_NODE":22.3823,"ARG_OF_PERICENTER":210.04,"MEAN_ANOMALY":149.985,"EPHEMERIS_TYPE":0,"CLASSIFICATION_TYPE":"U","NORAD_CAT_ID":64340,"ELEMENT_SET_NO":999,"REV_AT_EPOCH":4060,"BSTAR":0.0005738522,"MEAN_MOTION_DOT":7.204e-5,"MEAN_MOTION_DDOT":0}]
